GLOBALSTAR M057         
1 25943U 99058A   25289.46237203 -.00000084  00000+0  82147-4 0  9995
2 25943  52.0017   4.0239 0002173 254.7868 105.2742 12.24827534181796
GLOBALSTAR M059         
1 25944U 99058B   25289.64642859 -.00000144  00000+0 -70994-3 0  9997
2 25944  52.0008 238.5846 0000396  70.0061 101.3800 11.99987246588627
GLOBALSTAR M056         
1 25945U 99058C   25289.05845851 -.00000148  00000+0 -70245-3 0  9993
2 25945  51.9954 239.0355 0001415  55.3881  26.2647 12.04779358177196
GLOBALSTAR M039         
1 25961U 99062A   25289.62702948 -.00000078  00000+0  14588-3 0  9997
2 25961  51.9836 258.8314 0002212 261.4451  98.6165 12.62333659195558
GLOBALSTAR M034         
1 25962U 99062B   25289.07925648 -.00000049  00000+0  51334-3 0  9999
2 25962  51.9885  57.1328 0013307 268.7712 262.5254 11.79449417152657
GLOBALSTAR M061         
1 25964U 99062D   25289.61311376 -.00000077  00000+0  47559-4 0  9994
2 25964  51.9784 241.3953 0005466 190.6076 340.4369 11.76777658135473
